ATLAS CENTAUR 2         
1 00694U 63047A   26179.80003769  .00000951  00000+0  10347-3 0  9999
2 00694  30.3560 294.4532 0545859 339.9121  18.0743 14.12537754147342
THOR AGENA D R/B        
1 00733U 64002A   26180.50637779  .00000177  00000+0  80513-4 0  9991
2 00733  99.1151 199.9028 0031838 293.7922  65.9924 14.34070324254325
SL-3 R/B                
1 00877U 64053B   26180.51067291  .00000132  00000+0  49845-4 0  9997
2 00877  65.0777   3.3783 0080720 257.2370 101.9700 14.61432068283133
SL-8 R/B                
1 02802U 67045B   26180.33419771  .00000228  00000+0  70587-4 0  9998
2 02802  74.0105 139.5717 0063087 120.6726 240.0671 14.45687524105150
SL-8 R/B                
1 03230U 68040B   26180.22394427  .00002837  00000+0  20762-3 0  9995
2 03230  74.0314  85.6742 0025797 236.9264 122.9448 15.03873997106776
OAO 2                   
1 03597U 68110A   26180.54089091  .00000192  00000+0  56957-4 0  9990
2 03597  34.9949   0.7010 0005381   6.5783 353.4977 14.47356671 35312
ISIS 1                  
1 03669U 69009A   26180.40624294  .00000041  00000+0  26945-4 0  9990
2 03669  88.4438 143.0572 1706663 223.5353 121.7895 11.30435091361151
SERT 2                  
1 04327U 70009A   26180.48986800 -.00000014  00000+0  37647-4 0  9998
2 04327  99.2841 117.5427 0004000 234.3689 242.8991 13.58739993795077
SL-3 R/B                
1 05118U 71028B   26180.48140860  .00046276  00000+0  36764-3 0  9994
2 05118  81.2334 272.9452 0014312 236.3908 123.5985 15.70905474  6170
ASTEX 1                 
1 05560U 71089A   26180.48680578  .00000477  00000+0  12101-3 0  9999
2 05560  92.6997 187.8168 0017835  70.1077 290.2049 14.50860715878517
SL-8 R/B                
1 05730U 71119B   26180.52630443  .00003826  00000+0  19721-3 0  9999
2 05730  73.8885 326.3298 0543516 269.8186  84.0711 14.39585342671574
OAO 3 (COPERNICUS)      
1 06153U 72065A   26179.94907560  .00000280  00000+0  61631-4 0  9990
2 06153  35.0070  23.3860 0006766 344.3781 176.8343 14.60066546862465
ATLAS CENTAUR R/B       
1 06155U 72065B   26179.89723992  .00000955  00000+0  13236-3 0  9997
2 06155  35.0031  13.8910 0034053 227.5916 132.1901 14.77942115857727
SL-8 R/B                
1 08459U 75112B   26180.42191874  .00000192  00000+0  71760-4 0  9991
2 08459  74.0591 173.3655 0016703 238.8444 121.1073 14.38252201647936
SL-3 R/B                
1 10114U 77057B   26180.49897391  .00009589  00000+0  18446-3 0  9996
2 10114  97.5836 357.6379 0005836 229.0106 131.0639 15.48123004685616
SEASAT 1                
1 10967U 78064A   26180.41315006  .00000227  00000+0  10162-3 0  9998
2 10967 108.0178 359.9537 0001470 242.0386 118.0611 14.46251431522668
SL-14 R/B               
1 11267U 79011B   26180.51549948  .00000553  00000+0  51847-4 0  9998
2 11267  82.5240 350.4530 0017083  47.8404 312.4263 14.92025337545456
SL-8 R/B                
1 11574U 79089B   26180.55044816  .00000204  00000+0  69558-4 0  9993
2 11574  74.0683 243.9714 0015369  23.2691 336.9158 14.42409212452235
SL-14 R/B               
1 11672U 80005B   26180.53510882  .00000443  00000+0  42107-4 0  9997
2 11672  82.5131 201.1270 0016575 145.6866 214.5427 14.91038121493159
SL-8 R/B                
1 12139U 81003B   26180.50865095  .00013740  00000+0  33057-3 0  9998
2 12139  82.9347 186.3206 0250684 148.1170 213.5523 15.14592195331587
SL-3 R/B                
1 12465U 81046B   26180.50027532  .00010037  00000+0  21504-3 0  9993
2 12465  81.2295 155.2332 0017162 355.5127   4.5960 15.44453558455678
SL-3 R/B                
1 12904U 81103B   26180.47680458  .00004504  00000+0  19371-3 0  9994
2 12904  81.1588  82.1952 0011405 269.8722  90.1203 15.22380859990234
SL-3 R/B                
1 13068U 82013B   26180.51016015  .00003611  00000+0  15209-3 0  9998
2 13068  81.1730  29.5921 0022245 159.3628 200.8508 15.22863729421361
SL-3 R/B                
1 13154U 82039B   26180.48799972  .00003297  00000+0  19647-3 0  9998
2 13154  81.1482  86.8747 0027655 313.7966  46.0971 15.10614716398515
SL-3 R/B                
1 13403U 82079B   26180.51060616  .00004110  00000+0  15802-3 0  9993
2 13403  81.1458  60.9104 0024558 144.4235 215.8642 15.25887373394741
SL-14 R/B               
1 13553U 82092B   26180.57074781  .00000389  00000+0  40857-4 0  9991
2 13553  82.5672  36.7148 0018846 291.7827 131.0299 14.86755744345559
SL-3 R/B                
1 13819U 83010B   26180.52348204  .00011650  00000+0  20974-3 0  9996
2 13819  81.1003 224.7685 0014662  20.4536 339.7295 15.49544712375241
SL-3 R/B                
1 14208U 83075B   26180.53983882  .00008756  00000+0  21503-3 0  9990
2 14208  97.6098 189.5502 0020664 183.3668 176.7442 15.40707823347360
COSMOS 1536             
1 14699U 84013A   26180.49725801  .00006098  00000+0  24132-3 0  9995
2 14699  82.5440 356.5819 0012725 246.5002 113.4899 15.25178874289650
SL-14 R/B               
1 14820U 84027B   26180.33496516  .00000441  00000+0  47486-4 0  9991
2 14820  82.5421 140.3255 0017049 328.3331  31.6858 14.86068752264216
SL-8 R/B                
1 15483U 85006B   26179.84666957  .00000159  00000+0  61353-4 0  9992
2 15483  74.0458  56.6087 0019147 301.9406 134.5563 14.37839253170008
